GLOBALSTAR M057         
1 25943U 99058A   25089.77177844 -.00000084  00000+0  78307-4 0  9994
2 25943  51.9974 210.7452 0002756 200.8214 159.2524 12.24815989157323
GLOBALSTAR M059         
1 25944U 99058B   25090.48043647 -.00000083  00000+0  38412-4 0  9990
2 25944  52.0024  57.3907 0000491 133.2986  23.4267 11.99975394153466
GLOBALSTAR M056         
1 25945U 99058C   25089.63182556 -.00000142  00000+0 -63321-3 0  9992
2 25945  51.9964  63.6616 0001192  31.5912 140.0277 12.04778484153154
GLOBALSTAR M031         
1 25946U 99058D   25089.83619865 -.00000138  00000+0 -48707-3 0  9999
2 25946  51.9982 320.1328 0001872  43.6188  38.7365 12.16033714155257
GLOBALSTAR M039         
1 25961U 99062A   25090.09315736 -.00000065  00000+0  21791-3 0  9993
2 25961  51.9831 146.5759 0003022 169.3351 190.7580 12.62321892170389
GLOBALSTAR M034         
1 25962U 99062B   25089.83655163 -.00000073  00000+0  12175-3 0  9990
2 25962  51.9861 215.0537 0013714 250.3270 277.9518 11.79446076129145
GLOBALSTAR M029         
1 25963U 99062C   25090.06273141 -.00000043  00000+0  53664-3 0  9995
2 25963  51.9811 306.6311 0002190 343.0512 151.5234 11.99893907159790
GLOBALSTAR M061         
1 25964U 99062D   25090.15717882 -.00000080  00000+0  36178-5 0  9995
2 25964  51.9816  37.2166 0005805 174.9601 287.5165 11.76772324112287
